#aV2011  4 15  0  0   .00000000      96 DD+AD WGS84 FIT  NGA
## 1631 432000.00000000   900.00000000 55666  .0000000000000
+   32     1  2  3  4  5  6  7  8  9 10 11 12 13 14 15 16 17
+         18 19 20 21 22 23 24 25 26 27 28 29 30 31 32  0  0
+          0  0  0  0  0  0  0  0  0  0  0  0  0  0  0  0  0
+          0  0  0  0  0  0  0  0  0  0  0  0  0  0  0  0  0
+          0  0  0  0  0  0  0  0  0  0  0  0  0  0  0  0  0
++         0  0  0  0  0  0  0  0  0  0  0  0  0  0  0  0  0
++         0  0  0  0  0  0  0  0  0  0  0  0  0  0  0  0  0
++         0  0  0  0  0  0  0  0  0  0  0  0  0  0  0  0  0
++         0  0  0  0  0  0  0  0  0  0  0  0  0  0  0  0  0
++         0  0  0  0  0  0  0  0  0  0  0  0  0  0  0  0  0
%c cc cc ccc ccc cccc cccc cccc cccc ccccc ccccc ccccc ccccc
%c cc cc ccc ccc cccc cccc cccc cccc ccccc ccccc ccccc ccccc
%f  0.0000000  0.000000000  0.00000000000  0.000000000000000
%f  0.0000000  0.000000000  0.00000000000  0.000000000000000
%i    0    0    0    0      0      0      0      0         0
%i    0    0    0    0      0      0      0      0         0
/*      NGA, ST. LOUIS,MO.                                  
/*   EPHEMERIS COMPUTED FROM  3 DAYS OF DATA                
/* CCCCCCCCCCCCCCCCCCCCCCCCCCCCCCCCCCCCCCCCCCCCCCCCCCCCCCCCC
/* CCCCCCCCCCCCCCCCCCCCCCCCCCCCCCCCCCCCCCCCCCCCCCCCCCCCCCCCC
*  2011  4 15 19 15   .00000000                                                 
P  1   4905.150275 -23893.214460 -10443.564306   -222.787267                    
V  1   8374.024059 -10385.970974  28141.438257      -.025158                    
P  2  13350.142680  23228.803301   1453.270061    331.016725                    
V  2  -3534.822093    120.861459  30891.259790       .022130                    
P  3 -14616.695119 -12228.010667 -19033.835989    702.411798                    
V  3  22849.207255  -4943.635220 -14369.893782       .051288                    
P  4   3242.323518  22956.384934  12431.361700     89.203597                    
V  4 -11144.304284 -12306.280545  25559.580180       .104411                    
P  5   6526.010247  16819.661881 -19476.193287   -145.164899                    
V  5 -13067.553842  21057.223892  13921.990791      -.057877                    
P  6  -9990.741597 -14091.699242 -20066.009346    695.192512                    
V  6  25722.438664  -3056.562655 -10356.719986     -1.088597                    
P  7 -11889.713245   9110.025208 -21921.067738      8.248361                    
V  7 -14429.306006 -23774.946219  -2254.657018       .010287                    
P  8  -4857.845372  17730.964483 -18922.630218      7.726432                    
V  8 -11841.991185 -21133.088833 -17271.858574       .000678                    
P  9  18641.473599  10550.646711  15161.210604     74.008286                    
V  9   9403.188845  17952.509624 -23215.911008       .022747                    
P 10  -6492.298843  24025.483181  -8937.923822    -71.669652                    
V 10  -8315.754186   8113.387540  28898.574225      -.009425                    
P 11 -22312.328055  -8934.965112  11342.209049   -142.940214                    
V 11  -7851.913299 -13345.640609 -24898.782822      -.030286                    
P 12  16545.603562   -584.664324  20756.402609    -11.514189                    
V 12 -12266.887819  23274.609108  10617.126374       .027920                    
P 13 -23693.084500   5690.364390 -10779.269151    274.986645                    
V 13 -13294.617340  -2365.545301  28303.982425      -.014766                    
P 14   8170.886295 -13882.497518  21244.855295    144.103903                    
V 14  26544.336997   1579.654630  -9376.410662       .023236                    
P 15  25118.828212   4490.529593  -7661.312106   -135.039492                    
V 15  -9589.004201   3206.798560 -29373.275411       .028834                    
P 16  -4327.297889 -17905.511418 -18989.878262   -165.364494                    
V 16  13529.324832 -20157.402927  16192.790210      -.027208                    
P 17  -8501.658423  14410.059135  20714.464750    184.402152                    
V 17 -26038.501834  -1181.610021 -10149.301979      -.000793                    
P 18  16144.591192 -20004.076463  -5535.667008    132.025524                    
V 18   -328.544658   8475.712722 -30293.310846       .019979                    
P 19 -23015.736516  -8748.932942 -10397.541728   -130.776956                    
V 19  13210.416259  -1466.843847 -27660.832206      -.038848                    
P 20 -18029.819819   5200.007575  18625.912549     48.935674                    
V 20   9148.689256 -22343.581037  15037.161529       .001172                    
P 21  11665.684249 -10699.208287 -20871.792611   -137.703733                    
V 21  14765.758149  23353.316615  -4260.738703      -.026208                    
P 22   9807.595171 -24180.466311   4819.276880    150.189795                    
V 22   6202.270612  -3302.363185 -30344.346024      -.006691                    
P 23 -26677.311643   -928.318993   1712.573500    313.095272                    
V 23   2132.337468  -2423.238290  31515.023068      -.025842                    
P 24 -18484.939503  -7841.142076  17580.733971    381.920193                    
V 24  -8954.568151 -20319.874743 -18261.740762       .031638                    
P 25  17985.937456 -14525.838942  13040.888239     -1.167708                    
V 25  -5826.867476  15688.376292  25500.587320       .000553                    
P 26  16379.197455  12508.482751 -17577.815751     -3.514503                    
V 26 -20960.411439   -324.801678 -20059.982946      -.104810                    
P 27  19348.394240  14649.004313  11812.863043    255.793943                    
V 27   6512.541626  12300.048217 -27168.056904       .036997                    
P 28 -12423.724066  23264.415658   2032.758576     31.626317                    
V 28  -3239.460926    345.208555 -32077.606254       .025066                    
P 29  25239.050699  -4373.449702  -6850.719909    200.069938                    
V 29   8774.564863   2859.550216  30174.838103       .027981                    
P 30    654.495451 -22966.687452 -13706.469112    337.173820                    
V 30   9332.463913 -14064.438706  24784.472101       .028699                    
P 31  -5190.226888 -23494.077124  11209.107955     66.996341                    
V 31   8861.432316  10987.170819  27841.187379       .051573                    
P 32 -14953.032783  -5097.483849  21590.706431   -235.687163                    
V 32  14380.393230 -22647.692329   5078.877172      -.073545                    
EOF
